ONEWEB-0326             
1 49195U 21083K   22275.81893563  .00000090  00000+0  19612-3 0  9993
2 49195  87.9142 244.2933 0002507  96.1682 263.9736 13.18687125 51637
ONEWEB-0327             
1 49196U 21083L   22275.42407845  .00000071  00000+0  14632-3 0  9991
2 49196  87.9140 244.3540 0002499  91.8783 268.2635 13.18681233 51602
ONEWEB-0328             
1 49197U 21083M   22275.85082568  .00000241  00000+0  62448-3 0  9997
2 49197  87.9007 229.0678 0001957  85.7483 274.3870 13.13468505 53245
ONEWEB-0331             
1 49198U 21083N   22276.42130776  .00000209  00000+0  49798-3 0  9994
2 49198  87.9138 244.1985 0002165  91.5337 268.6043 13.18688311 53001
ONEWEB-0333             
1 49199U 21083P   22276.37876728 -.00000030  00000+0 -11574-3 0  9998
2 49199  87.9008 228.9623 0001926  70.1959 289.9378 13.13472656 54617
ONEWEB-0334             
1 49200U 21083Q   22276.58334491  .00046691  00000+0  47597-2 0  9994
2 49200  87.2100 192.0939 0001221  11.5665 155.6828 14.90462265 58544
ONEWEB-0335             
1 49201U 21083R   22276.37452972 -.00000060  00000+0 -19964-3 0  9997
2 49201  87.9008 228.9573 0001933  87.9348 272.2003 13.13472135 54624
ONEWEB-0336             
1 49202U 21083S   22275.80957744  .00000023  00000+0  27363-4 0  9992
2 49202  87.9008 229.0705 0001918  73.2598 286.8742 13.13467910 53256
ONEWEB-0337             
1 49203U 21083T   22276.36610451 -.00000200  00000+0 -58365-3 0  9990
2 49203  87.9008 228.9616 0001873  86.1829 273.9514 13.13468463 54626
ONEWEB-0338             
1 49204U 21083U   22276.25001157  .00029486  00000+0  30097-2 0  9992
2 49204  87.2160 192.4982 0002912  31.3869  56.3306 14.90494190 58483
ONEWEB-0339             
1 49205U 21083V   22276.43805027 -.00000258  00000+0 -74144-3 0  9991
2 49205  87.9009 228.9463 0001472  79.3169 280.8126 13.13468888 54611
ONEWEB-0340             
1 49206U 21083W   22276.18127531  .00000007  00000+0 -14598-4 0  9990
2 49206  87.9142 244.2358 0001951  88.0164 272.1192 13.18687225 52942
ONEWEB-0341             
1 49207U 21083X   22275.88553559  .00000131  00000+0  29985-3 0  9992
2 49207  87.9139 244.2272 0001306 116.6558 243.4708 13.18686596 51632
ONEWEB-0342             
1 49208U 21083Y   22276.25001157  .00026286  00000+0  26829-2 0  9999
2 49208  87.2123 192.3093 0002843  36.4020 223.7570 14.90510299 58499
ONEWEB-0343             
1 49209U 21083Z   22275.88243304 -.00000213  00000+0 -57320-3 0  9995
2 49209  87.9132 244.2650 0000618 114.9131 245.2065 13.18682892 51686
ONEWEB-0344             
1 49210U 21083AA  22275.87303826  .00000274  00000+0  71559-3 0  9997
2 49210  87.9007 229.0625 0002059  80.8171 279.3191 13.13471291 53244
ONEWEB-0345             
1 49211U 21083AB  22275.81485611 -.00000098  00000+0 -30381-3 0  9999
2 49211  87.9009 229.0592 0002054 102.1154 258.0206 13.13467775 53247
ONEWEB-0346             
1 49212U 21083AC  22275.66100571  .00000015  00000+0  62890-5 0  9991
2 49212  87.9139 244.2998 0002381  93.5912 266.5492 13.18686414 51594
ONEWEB-0348             
1 49213U 21083AD  22276.58334491  .00048030  00000+0  48925-2 0  9993
2 49213  87.2147 192.3141 0001890  25.5411 177.1005 14.90484701 58548
ONEWEB-0350             
1 49214U 21083AE  22275.82439174 -.00000223  00000+0 -64443-3 0  9992
2 49214  87.9009 229.0832 0002003  93.5747 266.5611 13.13468414 53270
ONEWEB-0351             
1 49215U 21083AF  22276.58334491  .00049306  00000+0  50230-2 0  9994
2 49215  87.2083 191.9915 0001319  36.0195 285.8195 14.90474335 58555
ONEWEB-0352             
1 49216U 21083AG  22276.11002429  .00000013  00000+0 -94470-7 0  9999
2 49216  87.9010 229.0104 0001801  69.6922 290.4401 13.13471032 54702
ONEWEB-0354             
1 49217U 21083AH  22276.25001157  .00027212  00000+0  27780-2 0  9996
2 49217  87.2131 192.3446 0002162  57.5659 174.6939 14.90499922 58511
ONEWEB-0355             
1 49218U 21083AJ  22276.14176094 -.00000709  00000+0 -19762-2 0  9993
2 49218  87.9012 229.0082 0001547  82.5071 277.6234 13.13468482 54589
ONEWEB-0357             
1 49219U 21083AK  22275.91667824  .00062197  00000+0  63293-2 0  9999
2 49219  87.2126 192.4508 0003038  30.1423 155.8550 14.90445667  1308
ONEWEB-0332             
1 49279U 21090A   22276.58334491  .00020156  00000+0  54220-1 0  9996
2 49279  87.9133 198.6208 0001702  55.7809 190.3947 13.14494580 49872
ONEWEB-0347             
1 49280U 21090B   22276.58334491  .00043917  00000+0  16381-1 0  9994
2 49280  87.6998 187.9946 0004344 118.6382 159.5898 14.31666832 51708
ONEWEB-0349             
1 49281U 21090C   22276.58334491  .00039013  00000+0  95542-1 0  9993
2 49281  87.9228 183.5805 0001900  90.3645 212.2401 13.20747749 52574
ONEWEB-0353             
1 49282U 21090D   22276.58334491  .00015753  00000+0  42391-1 0  9993
2 49282  87.9080 198.6469 0001978  61.2334 224.9556 13.14490662 51168
ONEWEB-0356             
1 49283U 21090E   22276.58334491  .00039051  00000+0  95630-1 0  9995
2 49283  87.9279 183.5668 0002910  83.8656 228.8005 13.20749130 52579
ONEWEB-0358             
1 49284U 21090F   22276.25001157  .00002240  00000+0  54761-2 0  9991
2 49284  87.9311 183.5324 0002132  86.3136 322.4343 13.20768351 53251
ONEWEB-0359             
1 49285U 21090G   22276.25001157  .00002197  00000+0  53690-2 0  9993
2 49285  87.9310 183.5700 0001417  94.0258 324.6980 13.20772834 53224
ONEWEB-0360             
1 49286U 21090H   22276.25001157  .00002094  00000+0  51169-2 0  9999
2 49286  87.9305 183.5823 0001928  77.0521  21.6430 13.20776523 52543
ONEWEB-0361             
1 49287U 21090J   22276.58334491  .00039100  00000+0  95758-1 0  9995
2 49287  87.9286 183.5496 0001964  77.8205 244.9604 13.20743977 52589
ONEWEB-0362             
1 49288U 21090K   22276.58334491 -.00003303  00000+0 -82875-2 0  9991
2 49288  87.9287 213.7377 0002220  68.7737 177.4757 13.19718575 49321
ONEWEB-0363             
1 49289U 21090L   22276.25001157  .00002204  00000+0  53868-2 0  9993
2 49289  87.9278 183.6131 0002189  81.0994  27.4951 13.20771185 52548
ONEWEB-0364             
1 49290U 21090M   22276.58334491  .00044117  00000+0  17733-1 0  9990
2 49290  87.6937 188.2435 0003574 100.9717  52.8674 14.27858034 52912
ONEWEB-0365             
1 49291U 21090N   22276.58334491 -.00003735  00000+0 -93654-2 0  9991
2 49291  87.9201 213.8069 0001852  79.9381 136.9664 13.19722169 49308
ONEWEB-0366             
1 49292U 21090P   22276.58334491  .00018433  00000+0  49597-1 0  9997
2 49292  87.9075 198.6322 0002142  67.4193 238.7699 13.14487752 51163
ONEWEB-0367             
1 49293U 21090Q   22276.25001157  .00002370  00000+0  57944-2 0  9991
2 49293  87.9251 183.6521 0001958  67.9127  50.7224 13.20774001 52532
ONEWEB-0368             
1 49294U 21090R   22276.58334491  .00042991  00000+0  17299-1 0  9999
2 49294  87.6963 188.2367 0003369 132.5112 135.3955 14.27810571 52925
ONEWEB-0369             
1 49295U 21090S   22276.58334491 -.00003541  00000+0 -88817-2 0  9995
2 49295  87.9234 213.7809 0002128  69.8380 161.6567 13.19722421 49299
ONEWEB-0370             
1 49296U 21090T   22276.25001157  .00002146  00000+0  52449-2 0  9990
2 49296  87.9294 183.6184 0002025  73.2845  15.3203 13.20776612 52578
ONEWEB-0371             
1 49297U 21090U   22275.91667824 -.00037557  00000+0 -94206-1 0  9994
2 49297  87.9285 213.8511 0001921  81.8760 194.8177 13.19743885  1306
ONEWEB-0372             
1 49298U 21090V   22276.58334491  .00039115  00000+0  95795-1 0  9994
2 49298  87.9288 183.5499 0002178  63.0059 209.6881 13.20745105 52599
ONEWEB-0373             
1 49299U 21090W   22276.25001157  .00014369  00000+0  53766-2 0  9996
2 49299  87.6958 187.9977 0004882 162.8741  49.1162 14.31683388 52956
ONEWEB-0374             
1 49300U 21090X   22276.58334491  .00018855  00000+0  50734-1 0  9990
2 49300  87.9072 198.6512 0002119  70.3729 295.3984 13.14482537 51154
ONEWEB-0375             
1 49301U 21090Y   22276.25001157  .00002091  00000+0  51096-2 0  9993
2 49301  87.9336 183.5556 0002619  88.2275 340.4019 13.20773658 53223
ONEWEB-0376             
1 49302U 21090Z   22276.58334491 -.00003775  00000+0 -94678-2 0  9995
2 49302  87.9227 213.7898 0001917  68.3596 141.1874 13.19718122 49338
ONEWEB-0377             
1 49303U 21090AA  22276.25001157  .00002059  00000+0  50317-2 0  9994
2 49303  87.9290 183.5613 0001717  78.0872   0.4804 13.20772908 53217
ONEWEB-0378             
1 49304U 21090AB  22276.58334491  .00039725  00000+0  97274-1 0  9993
2 49304  87.9253 183.5954 0002047  66.5065 306.1319 13.20749736 52554
ONEWEB-0379             
1 49305U 21090AC  22276.58334491  .00019840  00000+0  53376-1 0  9995
2 49305  87.9090 198.6315 0002022  71.0112 325.0739 13.14487836 51164
ONEWEB-0380             
1 49306U 21090AD  22276.58334491 -.00003649  00000+0 -91507-2 0  9997
2 49306  87.9225 213.7960 0001851  83.9862 140.2746 13.19718033 49302
ONEWEB-0381             
1 49307U 21090AE  22276.58334491  .00039038  00000+0  95597-1 0  9999
2 49307  87.9294 183.5725 0002088  76.8330 205.9811 13.20750823 52576
ONEWEB-0382             
1 49308U 21090AF  22276.58334491  .00039188  00000+0  95966-1 0  9996
2 49308  87.9291 183.5582 0002388  82.2103 250.4224 13.20748661 52588
ONEWEB-0383             
1 49309U 21090AG  22276.58334491  .00021022  00000+0  56557-1 0  9998
2 49309  87.9121 198.5772 0002255  72.9164 352.9208 13.14481570 51196
ONEWEB-0384             
1 49310U 21090AH  22276.58334491  .00039293  00000+0  96221-1 0  9991
2 49310  87.9272 183.5681 0002740  87.1937 255.4116 13.20750288 52595
ONEWEB-0385             
1 49311U 21090AJ  22276.58334491  .00039591  00000+0  96951-1 0  9993
2 49311  87.9299 183.5511 0002388  77.9092 284.7327 13.20747718 52575
ONEWEB-0386             
1 49312U 21090AK  22275.91667824  .00039523  00000+0  96822-1 0  9991
2 49312  87.9252 183.6930 0002257  72.1817 292.3558 13.20722356  1305
